NORAD_CAT_ID,OBJECT_NAME,OBJECT_TYPE,EPOCH,MEAN_MOTION,ECCENTRICITY,INCLINATION,RA_OF_ASC_NODE,ARG_OF_PERICENTER,MEAN_ANOMALY,BSTAR,MEAN_MOTION_DOT,MEAN_MOTION_DDOT,TLE_LINE0,TLE_LINE1,TLE_LINE2,SEMIMAJOR_AXIS,PERIOD,APOGEE,PERIGEE,DECAYED
54810.0,STARLINK-5408,PAYLOAD,2023-10-03 14:51:50,15.10479465,0.0001691,53.2185,50.6383,90.6148,269.5038,-1.6656e-05,-5.7e-06,0.0,0 STARLINK-5408,1 54810U 22175BE  23276.61933989 -.00000570  00000-0 -16656-4 0  9995,2 54810  53.2185  50.6383 0001691  90.6148 269.5038 15.10479465 46133,6912.874,95.334,535.908,533.57,0.0
54810.0,STARLINK-5408,PAYLOAD,2023-10-03 18:02:24,15.10485677,0.0001529,53.2192,50.0418,91.968,268.1488,2.938e-05,1.97e-06,0.0,0 STARLINK-5408,1 54810U 22175BE  23276.75167022  .00000197  00000-0  29380-4 0  9998,2 54810  53.2192  50.0418 0001529  91.9680 268.1488 15.10485677 43996,6912.855,95.334,535.777,533.663,0.0
54810.0,STARLINK-5408,PAYLOAD,2023-10-04 13:05:47,15.10467361,0.0001553,53.2184,46.4664,101.7039,258.4128,0.00019427,2.942e-05,0.0,0 STARLINK-5408,1 54810U 22175BE  23277.54569220  .00002942  00000-0  19427-3 0  9992,2 54810  53.2184  46.4664 0001553 101.7039 258.4128 15.10467361 46271,6912.911,95.335,535.849,533.702,0.0
54810.0,STARLINK-5408,PAYLOAD,2023-10-04 17:51:38,15.10481854,0.0001713,53.2189,45.5719,85.4228,274.696,0.00011018,1.542e-05,0.0,0 STARLINK-5408,1 54810U 22175BE  23277.74419253  .00001542  00000-0  11018-3 0  9997,2 54810  53.2189  45.5719 0001713  85.4228 274.6960 15.10481854 44144,6912.866,95.334,535.916,533.547,0.0
54810.0,STARLINK-5408,PAYLOAD,2023-10-05 14:30:16,15.10497851,0.0001967,53.2189,41.7034,90.814,269.3078,0.00015292,2.255e-05,0.0,0 STARLINK-5408,1 54810U 22175BE  23278.60436118  .00002255  00000-0  15292-3 0  9992,2 54810  53.2189  41.7034 0001967  90.8140 269.3078 15.10497851 46435,6912.818,95.333,536.042,533.323,0.0
54810.0,STARLINK-5408,PAYLOAD,2023-10-05 16:05:33,15.10504845,0.0001534,53.2181,41.4043,81.0921,279.0246,0.00015478,2.287e-05,0.0,0 STARLINK-5408,1 54810U 22175BE  23278.67052359  .00002287  00000-0  15478-3 0  9991,2 54810  53.2181  41.4043 0001534  81.0921 279.0246 15.10504845 44281,6912.796,95.332,535.722,533.601,0.0
54810.0,STARLINK-5408,PAYLOAD,2023-10-06 07:58:25,15.1047013,0.0001538,53.219,38.4298,82.2659,277.8509,-0.00017161,-3.148e-05,0.0,0 STARLINK-5408,1 54810U 22175BE  23279.33224127 -.00003148  00000-0 -17161-3 0  9999,2 54810  53.2190  38.4298 0001538  82.2659 277.8509 15.10470130 44382,6912.902,95.335,535.83,533.704,0.0
54810.0,STARLINK-5408,PAYLOAD,2023-10-06 14:19:33,15.10464292,0.0001561,53.2205,37.2366,89.065,271.0522,-0.00019645,-3.56e-05,0.0,0 STARLINK-5408,1 54810U 22175BE  23279.59691976 -.00003560  00000-0 -19645-3 0  9994,2 54810  53.2205  37.2366 0001561  89.0650 271.0522 15.10464292 46581,6912.92,95.335,535.864,533.706,0.0
54810.0,STARLINK-5408,PAYLOAD,2023-10-07 01:26:42,15.10357971,0.0001686,53.2184,35.1537,72.2119,287.9058,-0.00094885,-0.00016002,0.0,0 STARLINK-5408,1 54810U 22175BE  23280.06021330 -.00016002  00000-0 -94885-3 0  9993,2 54810  53.2184  35.1537 0001686  72.2119 287.9058 15.10357971 44499,6913.244,95.342,536.275,533.944,0.0
54810.0,STARLINK-5408,PAYLOAD,2023-10-07 12:34:06,15.10105906,0.000128,53.2188,33.0724,105.5445,254.5689,-0.0027587,-0.00045463,0.0,0 STARLINK-5408,1 54810U 22175BE  23280.52368328 -.00045463  00000-0 -27587-2 0  9992,2 54810  53.2188  33.0724 0001280 105.5445 254.5689 15.10105906 46727,6914.014,95.358,536.764,534.994,0.0
54810.0,STARLINK-5408,PAYLOAD,2023-10-08 10:49:22,15.09469672,0.0001172,53.2181,28.907,104.8257,255.2865,-0.0063067,-0.00100979,0.0,0 STARLINK-5408,1 54810U 22175BE  23281.45095225 -.00100979  00000-0 -63067-2 0  9995,2 54810  53.2181  28.9070 0001172 104.8257 255.2865 15.09469672 44701,6915.956,95.398,538.632,537.011,0.0
54810.0,STARLINK-5408,PAYLOAD,2023-10-08 14:00:04,15.09450677,0.0001345,53.2178,28.3116,93.2565,266.8581,-0.0062238,-0.00099624,0.0,0 STARLINK-5408,1 54810U 22175BE  23281.58338026 -.00099624  00000-0 -62238-2 0  9991,2 54810  53.2178  28.3116 0001345  93.2565 266.8581 15.09450677 46886,6916.014,95.399,538.81,536.949,0.0
54810.0,STARLINK-5408,PAYLOAD,2023-10-08 22:00:00,15.08823353,0.00014,53.2174,26.8138,73.2374,299.4503,0.00061698,9.54e-05,0.0,0 STARLINK-5408,1 54810U 22175BE  23281.91667824  .00009540  00000-0  61698-3 0  9995,2 54810  53.2174  26.8138 0001400  73.2374 299.4503 15.08823353 44773,6917.931,95.439,540.765,538.828,0.0
54810.0,STARLINK-5408,PAYLOAD,2023-10-09 14:00:01,15.0889462,0.0001458,53.2177,23.8217,78.2533,317.6225,-0.0079041,-0.00124107,0.0,0 STARLINK-5408,1 54810U 22175BE  23282.58334491 -.00124107  00000-0 -79041-2 0  9999,2 54810  53.2177  23.8217 0001458  78.2533 317.6225 15.08894620  5974,6917.713,95.434,540.587,538.57,0.0
54810.0,STARLINK-5408,PAYLOAD,2023-10-09 22:00:00,15.08827685,0.0001372,53.2176,22.3247,81.8331,325.6351,5.2956e-05,5.55e-06,0.0,0 STARLINK-5408,1 54810U 22175BE  23282.91667824  .00000555  00000-0  52956-4 0  9991,2 54810  53.2176  22.3247 0001372  81.8331 325.6351 15.08827685  5821,6917.918,95.438,540.732,538.834,0.0
54810.0,STARLINK-5408,PAYLOAD,2023-10-10 06:00:02,15.08844063,0.000142,53.2178,20.8273,94.2668,324.8719,0.0045273,0.00072514,0.0,0 STARLINK-5408,1 54810U 22175BE  23283.25002315  .00072514  00000-0  45273-2 0  9993,2 54810  53.2178  20.8273 0001420  94.2668 324.8719 15.08844063 44977,6917.868,95.437,540.715,538.751,0.0
54810.0,STARLINK-5408,PAYLOAD,2023-10-10 14:00:01,15.08912829,0.00015,53.2177,19.3327,91.8707,338.8327,-0.010995,-0.00171479,0.0,0 STARLINK-5408,1 54810U 22175BE  23283.58334491 -.00171479  00000-0 -10995-1 0  9996,2 54810  53.2177  19.3327 0001500  91.8707 338.8327 15.08912829 45028,6917.658,95.433,540.56,538.485,0.0
54810.0,STARLINK-5408,PAYLOAD,2023-10-10 22:00:01,15.08799086,0.0001492,53.2175,17.8356,100.688,341.6836,0.00079937,0.00012443,0.0,0 STARLINK-5408,1 54810U 22175BE  23283.91668981  .00012443  00000-0  79937-3 0  9993,2 54810  53.2175  17.8356 0001492 100.6880 341.6836 15.08799086 45072,6918.005,95.44,540.903,538.838,0.0
54810.0,STARLINK-5408,PAYLOAD,2023-10-11 14:00:01,15.08857628,0.0001526,53.2175,14.8442,94.2965,11.1328,-0.0043157,-0.00068354,0.0,0 STARLINK-5408,1 54810U 22175BE  23284.58334491 -.00068354  00000-0 -43157-2 0  9991,2 54810  53.2175  14.8442 0001526  94.2965  11.1328 15.08857628  5679,6917.827,95.436,540.747,538.636,0.0
54810.0,STARLINK-5408,PAYLOAD,2023-10-11 23:04:25,15.08842317,0.0001554,53.2187,13.1461,91.1516,268.9654,-7.0781e-05,-1.414e-05,0.0,0 STARLINK-5408,1 54810U 22175BE  23284.96140991 -.00001414  00000-0 -70781-4 0  9992,2 54810  53.2187  13.1461 0001554  91.1516 268.9654 15.08842317 45233,6917.873,95.437,540.813,538.663,0.0
54810.0,STARLINK-5408,PAYLOAD,2023-10-12 13:22:53,15.08851185,0.000155,53.2185,10.4691,92.7822,267.3347,1.8025e-05,-1e-08,0.0,0 STARLINK-5408,1 54810U 22175BE  23285.55756005 -.00000001  00000-0  18025-4 0  9990,2 54810  53.2185  10.4691 0001550  92.7822 267.3347 15.08851185 47483,6917.846,95.437,540.783,538.639,0.0
54810.0,STARLINK-5408,PAYLOAD,2023-10-13 11:38:17,15.08837039,0.0001754,53.2184,6.3064,111.353,248.765,6.134e-05,6.88e-06,0.0,0 STARLINK-5408,1 54810U 22175BE  23286.48492996  .00000688  00000-0  61340-4 0  9997,2 54810  53.2184   6.3064 0001754 111.3530 248.7650 15.08837039 45468,6917.889,95.438,540.968,538.541,0.0
54810.0,STARLINK-5408,PAYLOAD,2023-10-13 13:13:40,15.08840594,0.0001685,53.2186,6.0095,107.209,252.9087,0.00010672,1.411e-05,0.0,0 STARLINK-5408,1 54810U 22175BE  23286.55116664  .00001411  00000-0  10672-3 0  9996,2 54810  53.2186   6.0095 0001685 107.2090 252.9087 15.08840594 47631,6917.879,95.438,540.909,538.578,0.0
54810.0,STARLINK-5408,PAYLOAD,2023-10-14 11:29:03,15.08852035,0.0001473,53.2173,1.846,93.3046,266.8114,0.00016323,2.312e-05,0.0,0 STARLINK-5408,1 54810U 22175BE  23287.47851452  .00002312  00000-0  16323-3 0  9999,2 54810  53.2173   1.8460 0001473  93.3046 266.8114 15.08852035 45611,6917.844,95.437,540.728,538.69,0.0
54810.0,STARLINK-5408,PAYLOAD,2023-10-14 14:39:49,15.08861879,0.000165,53.217,1.2498,96.1856,263.9324,0.00012554,1.712e-05,0.0,0 STARLINK-5408,1 54810U 22175BE  23287.61098893  .00001712  00000-0  12554-3 0  9992,2 54810  53.2170   1.2498 0001650  96.1856 263.9324 15.08861879 45639,6917.814,95.436,540.82,538.537,0.0
54810.0,STARLINK-5408,PAYLOAD,2023-10-15 04:58:20,15.08832389,0.0002252,53.2186,358.5742,101.9066,258.2178,-0.00011638,-2.14e-05,0.0,0 STARLINK-5408,1 54810U 22175BE  23288.20717751 -.00002140  00000-0 -11638-3 0  9999,2 54810  53.2186 358.5742 0002252 101.9066 258.2178 15.08832389 45721,6917.904,95.438,541.327,538.211,0.0
54810.0,STARLINK-5408,PAYLOAD,2023-10-15 11:19:53,15.08824567,0.0001963,53.22,357.386,111.1746,248.9456,-0.000156,-2.769e-05,0.0,0 STARLINK-5408,1 54810U 22175BE  23288.47214438 -.00002769  00000-0 -15600-3 0  9992,2 54810  53.2200 357.3860 0001963 111.1746 248.9456 15.08824567 45760,6917.928,95.439,541.151,538.435,0.0
54810.0,STARLINK-5408,PAYLOAD,2023-10-15 14:30:39,15.08828128,0.0001811,53.219,356.7896,109.7369,250.3818,-0.00015983,-2.83e-05,0.0,0 STARLINK-5408,1 54810U 22175BE  23288.60462280 -.00002830  00000-0 -15983-3 0  9990,2 54810  53.2190 356.7896 0001811 109.7369 250.3818 15.08828128 47944,6917.917,95.438,541.035,538.529,0.0
54810.0,STARLINK-5408,PAYLOAD,2023-10-16 07:59:53,15.08838078,0.0001579,53.2189,353.52,104.0321,256.0847,-1.1008e-05,-4.63e-06,0.0,0 STARLINK-5408,1 54810U 22175BE  23289.33325330 -.00000463  00000-0 -11008-4 0  9990,2 54810  53.2189 353.5200 0001579 104.0321 256.0847 15.08838078 45895,6917.886,95.438,540.844,538.659,0.0
54810.0,STARLINK-5408,PAYLOAD,2023-10-16 11:10:38,15.08855057,0.0001555,53.2183,352.9231,100.2684,259.8483,-1.6181e-05,-5.46e-06,0.0,0 STARLINK-5408,1 54810U 22175BE  23289.46572356 -.00000546  00000-0 -16181-4 0  9995,2 54810  53.2183 352.9231 0001555 100.2684 259.8483 15.08855057 45916,6917.834,95.437,540.775,538.624,0.0
